NORAD_CAT_ID,OBJECT_NAME,OBJECT_TYPE,EPOCH,MEAN_MOTION,ECCENTRICITY,INCLINATION,RA_OF_ASC_NODE,ARG_OF_PERICENTER,MEAN_ANOMALY,BSTAR,MEAN_MOTION_DOT,MEAN_MOTION_DDOT,TLE_LINE0,TLE_LINE1,TLE_LINE2,SEMIMAJOR_AXIS,PERIOD,APOGEE,PERIGEE,DECAYED
49728.0,STARLINK-3240,PAYLOAD,2022-09-24 18:14:55,15.08834485,0.0001534,53.217,64.1397,57.3788,302.7352,1.0357e-05,-1.23e-06,0.0,0 STARLINK-3240,1 49728U 21115E   22267.76035954 -.00000123  00000-0  10357-4 0  9995,2 49728  53.2170  64.1397 0001534  57.3788 302.7352 15.08834485 44883,6917.897,95.438,540.823,538.701,0.0
49728.0,STARLINK-3240,PAYLOAD,2022-09-24 23:01:04,15.0883452,0.0001537,53.217,63.2478,58.0978,302.0164,9.6779e-06,-1.34e-06,0.0,0 STARLINK-3240,1 49728U 21115E   22267.95908014 -.00000134  00000-0  96779-5 0  9997,2 49728  53.2170  63.2478 0001537  58.0978 302.0164 15.08834520 46027,6917.897,95.438,540.825,538.6990000000002,0.0
49728.0,STARLINK-3240,PAYLOAD,2022-09-25 14:54:55,15.08838871,0.0001631,53.217,60.2749,54.974,305.1405,0.00010819,1.434e-05,0.0,0 STARLINK-3240,1 49728U 21115E   22268.62147585  .00001434  00000-0  10819-3 0  9992,2 49728  53.2170  60.2749 0001631  54.9740 305.1405 15.08838871 45015,6917.884,95.438,540.877,538.621,0.0
49728.0,STARLINK-3240,PAYLOAD,2022-09-26 03:38:00,15.08843709,0.0001496999999999,53.2169,57.8958,58.3474,301.7664,0.00011682,1.572e-05,0.0,0 STARLINK-3240,1 49728U 21115E   22269.15139199  .00001572  00000-0  11682-3 0  9995,2 49728  53.2169  57.8958 0001497  58.3474 301.7664 15.08843709 45092,6917.869000000002,95.437,540.77,538.698,0.0
49728.0,STARLINK-3240,PAYLOAD,2022-09-26 16:21:05,15.08837581,0.0001661,53.2173,55.5173,56.1019,304.0131,0.00010388,1.365e-05,0.0,0 STARLINK-3240,1 49728U 21115E   22269.68131708  .00001365  00000-0  10388-3 0  9993,2 49728  53.2173  55.5173 0001661  56.1019 304.0131 15.08837581 46283,6917.888000000001,95.438,540.9019999999998,538.604,0.0
49728.0,STARLINK-3240,PAYLOAD,2022-09-28 11:16:30,15.08840888,0.0001757,53.2164,47.4873,60.5166,299.6001,4.1544e-05,3.73e-06,0.0,0 STARLINK-3240,1 49728U 21115E   22271.46979368  .00000373  00000-0  41544-4 0  9991,2 49728  53.2164  47.4873 0001757  60.5166 299.6001 15.08840888 46557,6917.878000000002,95.437,540.9580000000002,538.5269999999998,0.0
49728.0,STARLINK-3240,PAYLOAD,2022-09-28 12:51:53,15.08842172,0.0001692,53.217,47.1907,56.2477,303.8676,6.1502e-05,6.91e-06,0.0,0 STARLINK-3240,1 49728U 21115E   22271.53603220  .00000691  00000-0  61502-4 0  9999,2 49728  53.2170  47.1907 0001692  56.2477 303.8676 15.08842172 45456,6917.874,95.437,540.909,538.568,0.0
49728.0,STARLINK-3240,PAYLOAD,2022-09-28 20:48:48,15.08849504,0.0001669,53.2177,45.7043,53.6768,306.4378,8.4967e-05,1.065e-05,0.0,0 STARLINK-3240,1 49728U 21115E   22271.86722593  .00001065  00000-0  84967-4 0  9996,2 49728  53.2177  45.7043 0001669  53.6768 306.4378 15.08849504 45506,6917.851,95.437,540.871,538.562,0.0
49728.0,STARLINK-3240,PAYLOAD,2022-09-28 23:59:34,15.08851305,0.0001665,53.2177,45.1094,53.6418,306.4728,9.8248e-05,1.276e-05,0.0,0 STARLINK-3240,1 49728U 21115E   22271.99970366  .00001276  00000-0  98248-4 0  9994,2 49728  53.2177  45.1094 0001665  53.6418 306.4728 15.08851305 46630,6917.846,95.437,540.863,538.559,0.0
49728.0,STARLINK-3240,PAYLOAD,2022-09-29 11:07:16,15.08843113,0.0001621999999999,53.2175,43.0276,52.3238,307.7901,4.5692e-05,4.39e-06,0.0,0 STARLINK-3240,1 49728U 21115E   22272.46339072  .00000439  00000-0  45692-4 0  9995,2 49728  53.2175  43.0276 0001622  52.3238 307.7901 15.08843113 46709,6917.871,95.437,540.8580000000002,538.614,0.0
49728.0,STARLINK-3240,PAYLOAD,2022-09-29 12:42:39,15.08845022,0.0001626,53.2175,42.7302,52.0954,308.0185,6.491e-05,7.45e-06,0.0,0 STARLINK-3240,1 49728U 21115E   22272.52962912  .00000745  00000-0  64910-4 0  9991,2 49728  53.2175  42.7302 0001626  52.0954 308.0185 15.08845022 45608,6917.865,95.437,540.855,538.605,0.0
49728.0,STARLINK-3240,PAYLOAD,2022-09-29 20:39:35,15.08843979,0.0001635,53.2173,41.2433,57.1077,303.0072,4.7523e-05,4.68e-06,0.0,0 STARLINK-3240,1 49728U 21115E   22272.86082950  .00000468  00000-0  47523-4 0  9996,2 49728  53.2173  41.2433 0001635  57.1077 303.0072 15.08843979 45651,6917.868,95.437,540.864,538.602,0.0
49728.0,STARLINK-3240,PAYLOAD,2022-09-30 10:58:03,15.08846428,0.0001692,53.2176,38.5669,52.8296,307.285,0.00012517,1.705e-05,0.0,0 STARLINK-3240,1 49728U 21115E   22273.45698616  .00001705  00000-0  12517-3 0  9993,2 49728  53.2176  38.5669 0001692  52.8296 307.2850 15.08846428 45744,6917.861,95.437,540.896,538.555,0.0
49728.0,STARLINK-3240,PAYLOAD,2022-09-30 17:19:36,15.08841227,0.000165,53.2179,37.3776,57.2147,302.9004,5.7308e-05,6.24e-06,0.0,0 STARLINK-3240,1 49728U 21115E   22273.72195082  .00000624  00000-0  57308-4 0  9999,2 49728  53.2179  37.3776 0001650  57.2147 302.9004 15.08841227 46893,6917.877,95.437,540.883,538.6,0.0
49728.0,STARLINK-3240,PAYLOAD,2022-09-30 20:30:22,15.08842977,0.0001657,53.2178,36.7829,51.1412,308.9728,5.7295e-05,6.24e-06,0.0,0 STARLINK-3240,1 49728U 21115E   22273.85442991  .00000624  00000-0  57295-4 0  9992,2 49728  53.2178  36.7829 0001657  51.1412 308.9728 15.08842977 45801,6917.871,95.437,540.883,538.59,0.0
49728.0,STARLINK-3240,PAYLOAD,2022-10-01 12:24:14,15.08839759,0.0001742,53.2171,33.8093,52.2717,307.8433,6.171699999999999e-05,6.94e-06,0.0,0 STARLINK-3240,1 49728U 21115E   22274.51682918  .00000694  00000-0  61717-4 0  9992,2 49728  53.2171  33.8093 0001742  52.2717 307.8433 15.08839759 45906,6917.880999999999,95.438,540.951,538.5409999999998,0.0
49728.0,STARLINK-3240,PAYLOAD,2022-10-01 18:45:46,15.08847782,0.0001763,53.2178,32.6201,50.9204,309.1945,0.00013977,1.938e-05,0.0,0 STARLINK-3240,1 49728U 21115E   22274.78178569  .00001938  00000-0  13977-3 0  9999,2 49728  53.2178  32.6201 0001763  50.9204 309.1945 15.08847782 45942,6917.857,95.437,540.941,538.502,0.0
49728.0,STARLINK-3240,PAYLOAD,2022-10-02 02:42:42,15.08842411,0.0002005999999999,53.2169,31.1333,49.9397,310.177,1.2966e-05,-8.2e-07,0.0,0 STARLINK-3240,1 49728U 21115E   22275.11298734 -.00000082  00000-0  12966-4 0  9992,2 49728  53.2169  31.1333 0002006  49.9397 310.1770 15.08842411 47106,6917.873000000001,95.437,541.126,538.35,0.0
49728.0,STARLINK-3240,PAYLOAD,2022-10-02 09:04:15,15.08825875,0.0001710999999999,53.2174,29.9437,50.5427,309.5716,-0.0001163,-2.138e-05,0.0,0 STARLINK-3240,1 49728U 21115E   22275.37795721 -.00002138  00000-0 -11630-3 0  9999,2 49728  53.2174  29.9437 0001711  50.5427 309.5716 15.08825875 47147,6917.924,95.438,540.972,538.605,0.0
49728.0,STARLINK-3240,PAYLOAD,2022-10-02 12:15:01,15.08828044,0.0001703,53.2173,29.349,50.9943,309.1201,-0.00010432,-1.947e-05,0.0,0 STARLINK-3240,1 49728U 21115E   22275.51043688 -.00001947  00000-0 -10432-3 0  9999,2 49728  53.2173  29.3490 0001703  50.9943 309.1201 15.08828044 46052,6917.917,95.438,540.96,538.604,0.0
49728.0,STARLINK-3240,PAYLOAD,2022-10-02 18:36:34,15.08840006,0.0001742,53.2181,28.1596,49.6918,310.4226,8.5675e-06,-1.52e-06,0.0,0 STARLINK-3240,1 49728U 21115E   22275.77539510 -.00000152  00000-0  85675-5 0  9990,2 49728  53.2181  28.1596 0001742  49.6918 310.4226 15.08840006 46093,6917.88,95.438,540.95,538.54,0.0
49728.0,STARLINK-3240,PAYLOAD,2022-10-03 04:08:52,15.08850283,0.0001763,53.2173,26.3754,47.9252,312.189,0.00028917,4.318e-05,0.0,0 STARLINK-3240,1 49728U 21115E   22276.17283005  .00004318  00000-0  28917-3 0  9991,2 49728  53.2173  26.3754 0001763  47.9252 312.1890 15.08850283 47269,6917.849,95.437,540.934,538.494,0.0
49728.0,STARLINK-3240,PAYLOAD,2022-10-03 13:41:11,15.08847786,0.0001774,53.2167,24.591,49.0702,311.0443,0.00033099,4.985e-05,0.0,0 STARLINK-3240,1 49728U 21115E   22276.57027154  .00004985  00000-0  33099-3 0  9993,2 49728  53.2167  24.5910 0001774  49.0702 311.0443 15.08847786 46211,6917.857,95.437,540.9490000000002,538.494,0.0
49728.0,STARLINK-3240,PAYLOAD,2022-10-03 18:27:20,15.08859218,0.0001831,53.2169,23.6992,48.5227,311.5922,0.00056679,8.749e-05,0.0,0 STARLINK-3240,1 49728U 21115E   22276.76898772  .00008749  00000-0  56679-3 0  9997,2 49728  53.2169  23.6992 0001831  48.5227 311.5922 15.08859218 46246,6917.821999999999,95.436,540.953,538.42,0.0
49728.0,STARLINK-3240,PAYLOAD,2022-10-04 13:31:57,15.08849175,0.0001679,53.2173,20.1308,45.7874,314.3256,0.00029765,4.453e-05,0.0,0 STARLINK-3240,1 49728U 21115E   22277.56386512  .00004453  00000-0  29765-3 0  9994,2 49728  53.2173  20.1308 0001679  45.7874 314.3256 15.08849175 47479,6917.852,95.437,540.879,538.556,0.0
49728.0,STARLINK-3240,PAYLOAD,2022-10-04 15:07:20,15.08852224,0.0001736,53.2174,19.8336,44.1898,315.9233,0.00036675,5.556e-05,0.0,0 STARLINK-3240,1 49728U 21115E   22277.63010364  .00005556  00000-0  36675-3 0  9994,2 49728  53.2174  19.8336 0001736  44.1898 315.9233 15.08852224 46378,6917.843000000003,95.437,540.909,538.507,0.0
49728.0,STARLINK-3240,PAYLOAD,2022-10-05 03:50:26,15.08838017,0.0001781999999999,53.2174,17.4551,43.5651,316.5482,-2.3288e-05,-6.59e-06,0.0,0 STARLINK-3240,1 49728U 21115E   22278.16002879 -.00000659  00000-0 -23288-4 0  9993,2 49728  53.2174  17.4551 0001782  43.5651 316.5482 15.08838017 47561,6917.886,95.438,540.984,538.519,0.0
49728.0,STARLINK-3240,PAYLOAD,2022-10-05 11:47:22,15.08835852,0.0001783,53.218,15.9683,45.827,314.2868,-0.00011093,-2.053e-05,0.0,0 STARLINK-3240,1 49728U 21115E   22278.49123566 -.00002053  00000-0 -11093-3 0  9996,2 49728  53.2180  15.9683 0001783  45.8270 314.2868 15.08835852 46500,6917.893,95.438,540.992,538.525,0.0
49728.0,STARLINK-3240,PAYLOAD,2022-10-05 14:58:08,15.08837505,0.0001786999999999,53.218,15.3737,45.8167,314.2971,-0.00011732,-2.155e-05,0.0,0 STARLINK-3240,1 49728U 21115E   22278.62371471 -.00002155  00000-0 -11732-3 0  9994,2 49728  53.2180  15.3737 0001787  45.8167 314.2971 15.08837505 46527,6917.888000000001,95.438,540.989,538.5169999999998,0.0
